{
"type": "FeatureCollection",
"name": "WellingtonPark_extent",
"features": [
{"type":"Feature","properties":{"OBJECTID":1,"TEN_CLASS":"Wellington Park","ACT":"Wellington Park Act","FEAT_NAME":"Wellington Park","CREATED_ON":"2025-04-19 07:15:04","Shape_Length":144900.968256597,"Shape_Area":180106239.03468004},"geometry":{"type":"MultiPolygon","coordinates":[[[[147.2336266,-42.8354038],[147.2333071,-42.8352398],[147.2286883,-42.8329018],[147.228688,-42.832902],[147.2248312,-42.8368852],[147.2209621,-42.8408631],[147.2209524,-42.8408579],[147.2171672,-42.8388451],[147.2157757,-42.8381051],[147.2154116,-42.8379114],[147.214011,-42.8371871],[147.2128114,-42.8365666],[147.2106475,-42.8386339],[147.2106032,-42.8386767],[147.2104989,-42.8387773],[147.2104913,-42.8387847],[147.2104825,-42.8387933],[147.2104124,-42.8388621],[147.2104122,-42.8388622],[147.2108453,-42.8389351],[147.2119106,-42.8391145],[147.2119105,-42.8391149],[147.2116218,-42.8400619],[147.2112985,-42.8411225],[147.2112234,-42.8413672],[147.2110326,-42.841992],[147.2107755,-42.8428336],[147.2106441,-42.8427775],[147.210141,-42.8433919],[147.2093425,-42.8443669],[147.2103485,-42.8448252],[147.2118897,-42.8455273],[147.2109037,-42.8467178],[147.2108829,-42.8467429],[147.2108813,-42.8467448],[147.2108758,-42.8467514],[147.2101978,-42.8475724],[147.207838,-42.850428],[147.2078379,-42.8504281],[147.2077,-42.8503659],[147.2072735,-42.8501738],[147.2072733,-42.8501741],[147.2056015,-42.8521844],[147.2043731,-42.8536616],[147.2026895,-42.8529075],[147.2006544,-42.8550941],[147.2015668,-42.8555591],[147.2017393,-42.8556471],[147.201252,-42.8561682],[147.2010842,-42.8563476],[147.2010843,-42.8563476],[147.2014461,-42.8565365],[147.2029562,-42.857325],[147.2035368,-42.8576282],[147.2035374,-42.8576285],[147.2018284,-42.8594378],[147.2017139,-42.859559],[147.2017137,-42.8595592],[147.2017066,-42.8595601],[147.2016997,-42.8595609],[147.2012679,-42.859336],[147.200116,-42.8587363],[147.1997076,-42.860235],[147.199382,-42.8614296],[147.1992741,-42.8618258],[147.1992121,-42.8620531],[147.1990132,-42.8627829],[147.199013,-42.8627829],[147.1986866,-42.8627374],[147.197819,-42.8626163],[147.1977297,-42.862602],[147.1972354,-42.8625224],[147.1972048,-42.8625181],[147.1971986,-42.8625172],[147.1923741,-42.8618402],[147.1923742,-42.86184],[147.1925111,-42.8613118],[147.1900093,-42.860965],[147.1897555,-42.8609298],[147.1895121,-42.8608958],[147.1886461,-42.8607719],[147.1886028,-42.8607657],[147.1877495,-42.8639158],[147.1877442,-42.8639354],[147.1862064,-42.8636977],[147.1824778,-42.8631212],[147.1782423,-42.8624651],[147.177086,-42.8622859],[147.1758998,-42.8621025],[147.1733946,-42.8617151],[147.1734019,-42.8616982],[147.1734061,-42.8616881],[147.1734321,-42.8616544],[147.1734626,-42.8616155],[147.1734827,-42.86159],[147.1734894,-42.8615834],[147.1735385,-42.8615351],[147.1735724,-42.8615079],[147.1736217,-42.8614685],[147.1736711,-42.8614329],[147.1737042,-42.8614171],[147.1737479,-42.8613962],[147.173839,-42.8613633],[147.1738964,-42.8613464],[147.173991,-42.8613185],[147.1740215,-42.8613077],[147.1740371,-42.8613022],[147.1740791,-42.8612785],[147.1740956,-42.8612621],[147.1741016,-42.8612561],[147.1741217,-42.8612257],[147.1741847,-42.8611322],[147.1742113,-42.8610928],[147.1742301,-42.8610457],[147.1742488,-42.860999],[147.1743319,-42.860686],[147.1743319,-42.8606859],[147.1738162,-42.8605947],[147.1710726,-42.8601094],[147.1698987,-42.859904],[147.1689542,-42.8597387],[147.1690045,-42.859562],[147.1691836,-42.8589329],[147.1691837,-42.8589326],[147.1668502,-42.8585736],[147.1667316,-42.8585557],[147.1633456,-42.8580317],[147.1627193,-42.8601554],[147.1657749,-42.8606263],[147.1657751,-42.8606263],[147.1656949,-42.8609176],[147.1656059,-42.8612407],[147.1656061,-42.8612407],[147.1692058,-42.8618158],[147.1695078,-42.861864],[147.1687594,-42.8647984],[147.1687525,-42.8648254],[147.1681856,-42.8666416],[147.1681556,-42.8667377],[147.1680675,-42.8667238],[147.1679504,-42.8667053],[147.1659368,-42.8663871],[147.1633215,-42.8659737],[147.1634572,-42.8654046],[147.1600211,-42.864838],[147.1600226,-42.8648331],[147.1600292,-42.864811],[147.1600292,-42.8648109],[147.1614243,-42.8601692],[147.1614805,-42.8599845],[147.1614863,-42.8599675],[147.1602355,-42.8597769],[147.1597065,-42.8596963],[147.1597065,-42.8596961],[147.1599471,-42.8588263],[147.1599568,-42.8587912],[147.1599619,-42.8587728],[147.1600176,-42.8585695],[147.1602379,-42.8577905],[147.1603042,-42.8575557],[147.1558785,-42.8568279],[147.155306,-42.8591518],[147.1534369,-42.8588649],[147.1524925,-42.8587199],[147.1503844,-42.8583962],[147.1503845,-42.8583961],[147.1506855,-42.8572745],[147.1507226,-42.8571366],[147.1507367,-42.857084],[147.1509176,-42.8564103],[147.1510944,-42.8557516],[147.1508126,-42.8557002],[147.1505558,-42.8556534],[147.1450942,-42.8547652],[147.1357576,-42.8534813],[147.134964,-42.853366],[147.1349633,-42.8533659],[147.1340291,-42.8567586],[147.1336861,-42.8568018],[147.130638,-42.8563942],[147.1279016,-42.8560281],[147.1283798,-42.8542708],[147.1284058,-42.8541779],[147.1286019,-42.8534787],[147.1288704,-42.852521],[147.1312268,-42.8528541],[147.1312268,-42.852854],[147.1316075,-42.8513654],[147.1316939,-42.8510276],[147.1317974,-42.8506451],[147.1318119,-42.8505914],[147.1318242,-42.8505459],[147.1319606,-42.8500419],[147.1319607,-42.8500417],[147.1307214,-42.8498689],[147.1285612,-42.8495676],[147.1272742,-42.8493881],[147.1272743,-42.849388],[147.1276419,-42.8478488],[147.1281756,-42.845614],[147.1281757,-42.8456138],[147.127426,-42.8455145],[147.124769,-42.8451624],[147.1247691,-42.845162],[147.1255656,-42.8419607],[147.1256568,-42.841599],[147.1257206,-42.8413464],[147.1257209,-42.8413464],[147.1275409,-42.8416072],[147.127541,-42.841607],[147.1275896,-42.8414024],[147.1271077,-42.8409271],[147.125687,-42.8395256],[147.1249342,-42.8387907],[147.1248849,-42.8387455],[147.1245534,-42.8384106],[147.1231392,-42.8391779],[147.122973,-42.839272],[147.1206984,-42.8405133],[147.1204965,-42.8406223],[147.1178136,-42.8420714],[147.1174626,-42.8432605],[147.1178201,-42.8433142],[147.1178657,-42.843321],[147.120247,-42.8436963],[147.1210321,-42.84382],[147.120328,-42.8462759],[147.120156,-42.8468761],[147.120144,-42.8469152],[147.1201369,-42.846944],[147.1201369,-42.8469443],[147.1185658,-42.8466243],[147.1182751,-42.8465652],[147.1182751,-42.846565],[147.1182708,-42.8465365],[147.1182597,-42.8464639],[147.1182596,-42.8464638],[147.1180025,-42.84641],[147.1180021,-42.84641],[147.1179809,-42.8464099],[147.1174965,-42.8464066],[147.116855,-42.8462759],[147.1165855,-42.846221],[147.1165809,-42.8462209],[147.1165494,-42.8462197],[147.116514,-42.8461909],[147.1164633,-42.8461496],[147.1162762,-42.8459975],[147.1161612,-42.8458457],[147.1159082,-42.8455116],[147.115589,-42.8449716],[147.1155403,-42.8448497],[147.1103476,-42.8440232],[147.1077411,-42.8436082],[147.1049341,-42.8431795],[147.0992715,-42.8423145],[147.0963902,-42.8417616],[147.0960001,-42.8416999],[147.0957311,-42.8416573],[147.0942453,-42.8452079],[147.0942451,-42.8452078],[147.0848118,-42.8430577],[147.0780681,-42.8412688],[147.0780677,-42.8412687],[147.0784087,-42.8405135],[147.0770588,-42.8401705],[147.0762133,-42.8399557],[147.0758745,-42.8398697],[147.0727949,-42.8463589],[147.0727948,-42.8463591],[147.072413,-42.845689],[147.0724127,-42.8456884],[147.0719175,-42.8457108],[147.0717087,-42.8457203],[147.0710249,-42.8453514],[147.0700491,-42.8449057],[147.0697452,-42.8447669],[147.0695362,-42.8447913],[147.0690397,-42.8448491],[147.0663864,-42.8442613],[147.0662325,-42.8442241],[147.0659329,-42.8441516],[147.0657578,-42.8435309],[147.0657577,-42.8435306],[147.064882,-42.8432226],[147.0648164,-42.8431995],[147.0636957,-42.84339],[147.0636837,-42.8434349],[147.0636804,-42.8434471],[147.0636685,-42.8434918],[147.0636684,-42.8434921],[147.0639919,-42.8433551],[147.0641275,-42.8433439],[147.0642122,-42.8433369],[147.0645182,-42.8433908],[147.0648365,-42.8435437],[147.064837,-42.843544],[147.0653631,-42.8438496],[147.0657795,-42.8442006],[147.066013,-42.8442964],[147.0661958,-42.8443714],[147.0666854,-42.8444522],[147.066717,-42.8444651],[147.0667171,-42.8444652],[147.0667071,-42.8445102],[147.0666657,-42.844696],[147.0661927,-42.8468165],[147.0655124,-42.849866],[147.0654933,-42.8499518],[147.0654931,-42.8499518],[147.0643309,-42.8498236],[147.0624439,-42.8496154],[147.0624438,-42.8496154],[147.0622759,-42.850391],[147.0622659,-42.8504372],[147.0622362,-42.8505743],[147.0616471,-42.853279],[147.061647,-42.8532794],[147.0624852,-42.8533821],[147.062989,-42.8534437],[147.062989,-42.853444],[147.0619544,-42.8578336],[147.058948,-42.8574838],[147.0589436,-42.8575031],[147.0585392,-42.8592749],[147.0585366,-42.8592862],[147.0586781,-42.8593052],[147.0587568,-42.8593158],[147.0587568,-42.859316],[147.0587342,-42.8594049],[147.0584516,-42.8605161],[147.058344,-42.8609392],[147.058341,-42.860951],[147.0580763,-42.861992],[147.0576531,-42.8636878],[147.0576353,-42.863759],[147.057635,-42.863759],[147.055895,-42.8635464],[147.054178,-42.8633367],[147.052396,-42.8630813],[147.0503381,-42.8627864],[147.0492469,-42.8626584],[147.0492466,-42.8626583],[147.0491799,-42.862951],[147.0491413,-42.8631206],[147.0491411,-42.8631206],[147.0444172,-42.862519],[147.0442005,-42.8632158],[147.0436636,-42.8649417],[147.0435217,-42.8655087],[147.0435221,-42.8655088],[147.0485814,-42.8661789],[147.0485814,-42.8661789],[147.0481418,-42.8680615],[147.0479166,-42.8690258],[147.0454035,-42.8727779],[147.045246,-42.8730131],[147.0444805,-42.8759946],[147.0446063,-42.8760115],[147.0480507,-42.8764767],[147.048099,-42.8763307],[147.0508834,-42.8767],[147.0517347,-42.8768129],[147.0560606,-42.8773864],[147.0553939,-42.8801245],[147.0550871,-42.881384],[147.0550871,-42.8813844],[147.0558725,-42.8814993],[147.0586879,-42.8819113],[147.058688,-42.8819113],[147.0586837,-42.881928],[147.058084,-42.8842884],[147.0575675,-42.8863206],[147.0557738,-42.8860759],[147.055321,-42.8860141],[147.0553209,-42.8860141],[147.0542234,-42.8902656],[147.0529241,-42.895298],[147.052924,-42.895298],[147.0476487,-42.8946315],[147.047467,-42.8946085],[147.0473861,-42.8945982],[147.0472927,-42.8945864],[147.0472568,-42.8945819],[147.0472278,-42.8946722],[147.047193,-42.8947577],[147.0471729,-42.894807],[147.0471357,-42.8948747],[147.0470938,-42.8949201],[147.0470781,-42.8949371],[147.0469656,-42.8951148],[147.0469402,-42.8951723],[147.0469386,-42.8951838],[147.0469344,-42.8952154],[147.0469548,-42.8953358],[147.0469444,-42.8956356],[147.0469616,-42.8957408],[147.0469609,-42.8958111],[147.0469345,-42.8959703],[147.0469181,-42.8960687],[147.0468751,-42.8964353],[147.0468711,-42.896456],[147.0468595,-42.8965161],[147.0468371,-42.8965739],[147.046826,-42.8966024],[147.0467321,-42.8967935],[147.0466637,-42.896835],[147.0466284,-42.8968565],[147.0464866,-42.8969318],[147.0464366,-42.8969546],[147.0464091,-42.8969672],[147.0462984,-42.897009],[147.0462904,-42.8970128],[147.0462861,-42.8970148],[147.0460736,-42.8971159],[147.0448324,-42.8977064],[147.0442992,-42.8982599],[147.0441488,-42.898416],[147.0441486,-42.8984161],[147.0440139,-42.8983993],[147.0435237,-42.898338],[147.0433061,-42.8983108],[147.0413824,-42.8980703],[147.0381829,-42.8976703],[147.035054,-42.8972791],[147.035054,-42.897279],[147.0356801,-42.8947639],[147.036034,-42.8933422],[147.0360784,-42.8931639],[147.0353475,-42.8930699],[147.0340909,-42.8929082],[147.0323965,-42.8926901],[147.032716,-42.8914018],[147.032763,-42.8912123],[147.0330713,-42.8899691],[147.0331759,-42.8895475],[147.0333226,-42.8889559],[147.0341031,-42.885808],[147.0341032,-42.8858076],[147.0391,-42.8864202],[147.0401189,-42.8865451],[147.0403731,-42.8865762],[147.0406814,-42.8853311],[147.0407699,-42.8849734],[147.0407747,-42.8849542],[147.0408188,-42.884776],[147.0408188,-42.8847759],[147.0400182,-42.8846555],[147.0382071,-42.8843832],[147.0382072,-42.884383],[147.0393775,-42.8806974],[147.039509,-42.8802832],[147.0396055,-42.8799792],[147.0381501,-42.8797832],[147.0349004,-42.8793455],[147.0347262,-42.8791621],[147.0359653,-42.874379],[147.0359894,-42.8742862],[147.0360141,-42.8741908],[147.0360414,-42.8740895],[147.0360409,-42.8740894],[147.0358721,-42.8740651],[147.0358357,-42.8740599],[147.031277,-42.873404],[147.0312766,-42.8734039],[147.0311981,-42.8732432],[147.0310924,-42.8730269],[147.0310923,-42.8730266],[147.0310988,-42.8724801],[147.0311124,-42.8713485],[147.0311224,-42.8713011],[147.0311273,-42.8712781],[147.0311912,-42.8709763],[147.0313564,-42.8703421],[147.0313564,-42.8703419],[147.0310973,-42.8700038],[147.0307668,-42.8695725],[147.0307632,-42.8695307],[147.0306963,-42.8687527],[147.0306514,-42.8683112],[147.030645,-42.8682486],[147.0306428,-42.8682271],[147.030631,-42.868227],[147.0306006,-42.8682268],[147.0303734,-42.8682252],[147.029849,-42.8682215],[147.029573,-42.8680184],[147.0291955,-42.8677407],[147.0291412,-42.8673099],[147.0291412,-42.8673095],[147.0294143,-42.8671982],[147.0295627,-42.8671377],[147.0296469,-42.8671034],[147.0298158,-42.8670346],[147.0299012,-42.8669998],[147.030036,-42.8669448],[147.0300363,-42.8669447],[147.029944,-42.8662216],[147.0288584,-42.8660545],[147.0284942,-42.8659985],[147.0284174,-42.8659861],[147.0283448,-42.8659745],[147.0281592,-42.8659422],[147.0281589,-42.8659419],[147.028158,-42.8659411],[147.0281553,-42.8659388],[147.0281521,-42.865936],[147.0281164,-42.865905],[147.0280834,-42.8658668],[147.028063,-42.8658431],[147.0280079,-42.8657794],[147.0279337,-42.8656069],[147.0278748,-42.8653337],[147.0277913,-42.8649467],[147.0276016,-42.864647],[147.0275529,-42.8645701],[147.0270624,-42.8644567],[147.0260849,-42.8642308],[147.0255019,-42.8635297],[147.0255018,-42.8635295],[147.0254018,-42.863189],[147.025366,-42.8630668],[147.0253381,-42.8629762],[147.0252849,-42.862803],[147.0252849,-42.8628027],[147.0249993,-42.8627658],[147.0243701,-42.8626822],[147.0230099,-42.8625015],[147.0230095,-42.8625015],[147.0227857,-42.8635005],[147.0227679,-42.8635798],[147.0227592,-42.8636187],[147.022413,-42.86513],[147.022413,-42.8651303],[147.0230072,-42.8651974],[147.023727,-42.8652786],[147.0237269,-42.865279],[147.0229397,-42.8690556],[147.020784,-42.8688124],[147.0205061,-42.8687811],[147.0203349,-42.8693483],[147.0197646,-42.871237],[147.0197646,-42.8712372],[147.0147838,-42.8707152],[147.015096,-42.8695574],[147.0153442,-42.8686369],[147.0102531,-42.8679399],[147.0102862,-42.8678137],[147.0047241,-42.8669377],[147.0056999,-42.8632723],[147.0057,-42.863272],[147.0057679,-42.863027],[147.0057679,-42.8630269],[147.0057618,-42.8630274],[147.0057374,-42.8630293],[147.0056901,-42.8630404],[147.0056724,-42.8630482],[147.0056615,-42.863053],[147.005635,-42.8630673],[147.0055749,-42.8631107],[147.0055731,-42.863112],[147.0055694,-42.8631153],[147.0055286,-42.8631526],[147.0055155,-42.8631687],[147.0055114,-42.8631738],[147.0055043,-42.863186],[147.0054955,-42.8632011],[147.0054784,-42.8632484],[147.0054576,-42.8633056],[147.0054403,-42.863389],[147.0054295,-42.8634254],[147.0054172,-42.8634488],[147.005417,-42.863449],[147.0054161,-42.8634504],[147.0053117,-42.8636026],[147.005224,-42.8636908],[147.0051527,-42.8637407],[147.0050947,-42.8637737],[147.0049533,-42.8638138],[147.0049411,-42.8638165],[147.0048975,-42.8638264],[147.00487,-42.8638301],[147.0048508,-42.8638327],[147.0047864,-42.8638337],[147.0046781,-42.8638235],[147.0045599,-42.8638124],[147.0045088,-42.863805],[147.0043735,-42.8637701],[147.0043615,-42.863768],[147.0043356,-42.8637636],[147.0040277,-42.8637336],[147.0039855,-42.8637247],[147.0039783,-42.8637232],[147.0039463,-42.8637133],[147.0037232,-42.8636446],[147.0036662,-42.8636348],[147.0036231,-42.8636327],[147.0035922,-42.8636311],[147.0035848,-42.8636315],[147.0035642,-42.8636326],[147.0035177,-42.8636401],[147.0034793,-42.8636463],[147.0034048,-42.8636541],[147.0032657,-42.8636783],[147.003243,-42.86368],[147.0032307,-42.8636809],[147.0032184,-42.86368],[147.0031934,-42.8636782],[147.0031658,-42.8636698],[147.0031533,-42.8636661],[147.003153,-42.863666],[147.0031204,-42.8636597],[147.0031013,-42.8636573],[147.0030782,-42.8636544],[147.0030229,-42.8636531],[147.0029823,-42.863657],[147.0029447,-42.8636648],[147.0028765,-42.863679],[147.0028733,-42.8636794],[147.0028274,-42.8636846],[147.0027737,-42.8636891],[147.0027434,-42.8636916],[147.0026933,-42.863688],[147.0026889,-42.8636869],[147.0026638,-42.8636804],[147.0026434,-42.8636724],[147.0026371,-42.8636699],[147.0026043,-42.8636536],[147.002584,-42.8636363],[147.002577,-42.8636302],[147.0025419,-42.8635943],[147.0024816,-42.8635224],[147.0024537,-42.8635004],[147.0024258,-42.863484],[147.0024242,-42.8634831],[147.002424,-42.863483],[147.002424,-42.863483],[147.0021678,-42.8634083],[147.0020846,-42.8633813],[147.0020151,-42.8633587],[147.0018368,-42.8633225],[147.0017705,-42.8633057],[147.0017365,-42.8632997],[147.0015072,-42.8632848],[147.0014241,-42.8632799],[147.0013718,-42.8632728],[147.0009208,-42.8631786],[147.0009094,-42.8631744],[147.0009006,-42.8631711],[147.0008516,-42.8631613],[147.0006686,-42.8630936],[147.0005611,-42.8630538],[147.0002292,-42.8629685],[147.0001905,-42.8629517],[147.0001803,-42.8629473],[146.9998878,-42.862942],[146.9996591,-42.8629378],[146.999457,-42.862966],[146.9994567,-42.862966],[146.9992309,-42.8630286],[146.9991512,-42.8630284],[146.9990908,-42.8630283],[146.998985,-42.8629818],[146.998967,-42.8629739],[146.9989666,-42.8629738],[146.9989606,-42.8629603],[146.9989589,-42.8629566],[146.9988264,-42.8628705],[146.9987548,-42.8628241],[146.9987339,-42.8628103],[146.9986971,-42.8627967],[146.9986484,-42.8627787],[146.9985933,-42.8627654],[146.9984075,-42.8627239],[146.9983854,-42.862723],[146.9982737,-42.8627185],[146.9977627,-42.8626993],[146.9976981,-42.8626914],[146.9976029,-42.8626796],[146.9976025,-42.8626796],[146.9975987,-42.862667],[146.9975722,-42.8626595],[146.9974614,-42.8626225],[146.9973656,-42.8625905],[146.9972216,-42.862608],[146.997187,-42.862613],[146.9971866,-42.8626131],[146.9971817,-42.8626152],[146.9970799,-42.8626607],[146.9970463,-42.8626757],[146.9970164,-42.8626932],[146.9969894,-42.862709],[146.99698,-42.8627145],[146.9969697,-42.8627283],[146.9969565,-42.8627459],[146.9969083,-42.8627562],[146.9968693,-42.8627733],[146.996788,-42.8627974],[146.99668,-42.8628295],[146.9966099,-42.8628409],[146.9965181,-42.8628257],[146.9964,-42.8628062],[146.996381,-42.8627992],[146.9961554,-42.8627165],[146.9961542,-42.862716],[146.9961523,-42.8627153],[146.996101,-42.8626952],[146.995932,-42.8626418],[146.9957786,-42.8625934],[146.995575,-42.862561],[146.9955749,-42.862561],[146.9954767,-42.862545],[146.9954789,-42.862536],[146.9954833,-42.8625176],[146.9955445,-42.8622613],[146.995544,-42.862261],[146.9946782,-42.8617792],[146.9933255,-42.8617012],[146.9924559,-42.8619701],[146.9923537,-42.8619982],[146.9918857,-42.8621266],[146.9910622,-42.8622271],[146.9906267,-42.8622803],[146.9903447,-42.8623738],[146.9895766,-42.8626286],[146.9886255,-42.8627659],[146.9884026,-42.8637067],[146.9875593,-42.8638706],[146.98732,-42.8639171],[146.9864844,-42.8642781],[146.9775345,-42.8629242],[146.9751665,-42.8625578],[146.9690606,-42.8616128],[146.9689792,-42.8616005],[146.9643346,-42.860901],[146.9643202,-42.8608989],[146.9637189,-42.8608083],[146.9585285,-42.8600263],[146.9582834,-42.8599894],[146.9580199,-42.8606153],[146.9579786,-42.8607136],[146.9567146,-42.8637165],[146.956607,-42.863972],[146.9566069,-42.8639723],[146.9565731,-42.8640524],[146.9565279,-42.86416],[146.9564,-42.8644638],[146.9563725,-42.8645292],[146.9562242,-42.8648814],[146.9560764,-42.8652324],[146.955325,-42.8670174],[146.9553062,-42.867062],[146.9551576,-42.8674149],[146.9547451,-42.8683947],[146.9542369,-42.8696019],[146.9541719,-42.8697561],[146.9541141,-42.8698935],[146.9540602,-42.8699067],[146.9528384,-42.8702058],[146.9527848,-42.8702189],[146.9510002,-42.8706556],[146.9507229,-42.8707234],[146.9495084,-42.8710206],[146.9493736,-42.8710536],[146.949038,-42.8711357],[146.9484658,-42.8712758],[146.9483759,-42.8712977],[146.9481505,-42.8713529],[146.9480296,-42.8713825],[146.9478689,-42.8714218],[146.9478867,-42.8715085],[146.9479095,-42.8716192],[146.9480522,-42.8723127],[146.948085,-42.872472],[146.9489647,-42.8767462],[146.9492201,-42.8779873],[146.9494477,-42.879093],[146.950186,-42.8826794],[146.9502294,-42.882693],[146.9502603,-42.8827027],[146.9503142,-42.8827196],[146.9507976,-42.8828709],[146.9624902,-42.8865305],[146.9625736,-42.8865566],[146.9627966,-42.8866263],[146.9635691,-42.886868],[146.9637943,-42.8869385],[146.9652005,-42.8873785],[146.9652282,-42.8873872],[146.9661436,-42.8876736],[146.9661742,-42.8876832],[146.9682531,-42.8883336],[146.9689185,-42.8885417],[146.9690559,-42.8885847],[146.9695312,-42.8887334],[146.9697758,-42.8888099],[146.9700153,-42.8888039],[146.9701432,-42.8888007],[146.970363,-42.8887952],[146.9703881,-42.8887946],[146.9707553,-42.8887854],[146.9713682,-42.8887701],[146.9720756,-42.8887524],[146.972408,-42.8887441],[146.9725696,-42.88874],[146.973237,-42.8887233],[146.9750626,-42.8886776],[146.9785495,-42.8885902],[146.9801883,-42.888549],[146.9859422,-42.8884045],[146.9966844,-42.8881338],[146.9966995,-42.8881334],[146.9967152,-42.888133],[146.998311,-42.8880927],[146.9998443,-42.888054],[147.0,-42.8880501],[147.0004047,-42.8880398],[147.0013722,-42.8880154],[147.001675,-42.8880077],[147.0017054,-42.8880069],[147.0068176,-42.8878776],[147.0080574,-42.8878461],[147.0082378,-42.8878416],[147.0087199,-42.8878293],[147.008965,-42.8878231],[147.0089651,-42.8878231],[147.0096352,-42.8902148],[147.0099229,-42.891242],[147.0105677,-42.8935432],[147.0105886,-42.893618],[147.0106807,-42.8939466],[147.0091538,-42.8963366],[147.0091415,-42.8963559],[147.0086374,-42.8971448],[147.0084156,-42.897492],[147.0083265,-42.8976315],[147.0083108,-42.897656],[147.0082444,-42.89776],[147.0082348,-42.8977749],[147.0082142,-42.8978072],[147.0082065,-42.8978193],[147.0081092,-42.8979716],[147.0080114,-42.8981246],[147.0068036,-42.9000149],[147.0064966,-42.9004953],[147.0062034,-42.9009542],[147.0061975,-42.9009633],[147.0061925,-42.9009711],[147.005905,-42.901421],[147.0059048,-42.9014213],[147.0067873,-42.9019182],[147.0068272,-42.9019407],[147.0071939,-42.9021471],[147.0080169,-42.9026105],[147.0103515,-42.9039249],[147.0114785,-42.9045593],[147.0117974,-42.9047388],[147.0135003,-42.9056974],[147.0142854,-42.9061394],[147.0152629,-42.9066896],[147.0155132,-42.9068305],[147.0155166,-42.9068323],[147.0157142,-42.9069436],[147.0161555,-42.907192],[147.0174209,-42.9079042],[147.0176404,-42.9078218],[147.0176929,-42.9078021],[147.0177668,-42.9077743],[147.0180887,-42.9076536],[147.0193098,-42.9071954],[147.019479,-42.9071318],[147.0196778,-42.9070573],[147.0197799,-42.907019],[147.0218118,-42.9062564],[147.023004,-42.905809],[147.0232868,-42.9057028],[147.0234227,-42.9056518],[147.0249637,-42.9053823],[147.027347,-42.9049654],[147.0282471,-42.9048079],[147.0287012,-42.9047285],[147.0287576,-42.9047186],[147.0312411,-42.9042841],[147.0312571,-42.9042813],[147.0313134,-42.9042715],[147.0351946,-42.9035923],[147.0355563,-42.903529],[147.0357941,-42.9034874],[147.0358508,-42.903584],[147.0359188,-42.9037],[147.0359431,-42.9037416],[147.038997,-42.9089493],[147.0390223,-42.9089925],[147.0390428,-42.9090274],[147.0390698,-42.9090734],[147.0391415,-42.9091957],[147.0392039,-42.9093022],[147.0395956,-42.90997],[147.039596,-42.90997],[147.0404602,-42.9098184],[147.0405158,-42.9098087],[147.0407338,-42.9097704],[147.04373,-42.9092449],[147.0439533,-42.9092057],[147.0441713,-42.9091675],[147.0447401,-42.9090677],[147.0447403,-42.9090677],[147.0447426,-42.9090595],[147.0456605,-42.905676],[147.0459923,-42.9044533],[147.046438,-42.90281],[147.0464507,-42.9027633],[147.0464509,-42.9027635],[147.0465084,-42.9028261],[147.049322,-42.9058884],[147.0495771,-42.906166],[147.0496149,-42.906287],[147.0497869,-42.9068364],[147.0497899,-42.9068459],[147.0499209,-42.9072645],[147.0499702,-42.9075527],[147.0500051,-42.9076331],[147.0500561,-42.9077508],[147.0502523,-42.9080118],[147.0502717,-42.9080714],[147.0502889,-42.9081246],[147.0503137,-42.9082009],[147.0503019,-42.9087862],[147.0505351,-42.9092903],[147.0505351,-42.9092904],[147.050609,-42.9097227],[147.050609,-42.9097229],[147.0506075,-42.9097884],[147.0505972,-42.910236],[147.0506465,-42.9106502],[147.0506363,-42.9107741],[147.0506101,-42.9110915],[147.0505613,-42.9112806],[147.050561,-42.911281],[147.0504266,-42.9114788],[147.0501206,-42.9117851],[147.049856,-42.9119565],[147.049815,-42.911983],[147.0498145,-42.9119833],[147.0496539,-42.912224],[147.0494719,-42.9124968],[147.0492931,-42.9129073],[147.049264,-42.9129742],[147.0491785,-42.9132984],[147.0490569,-42.913539],[147.0489827,-42.9136857],[147.0489339,-42.9138568],[147.0488237,-42.913992],[147.0486882,-42.9141047],[147.0482605,-42.9144605],[147.048176,-42.9145797],[147.0481136,-42.9146676],[147.0481013,-42.9148376],[147.0480894,-42.9150009],[147.0479066,-42.9155218],[147.0478292,-42.9157425],[147.0478082,-42.9158025],[147.0478088,-42.9158268],[147.0478152,-42.9160656],[147.0478208,-42.9162797],[147.0478628,-42.9163772],[147.0480625,-42.9168412],[147.0480669,-42.9168514],[147.0481154,-42.916964],[147.0482004,-42.9171199],[147.0482067,-42.9171314],[147.0483363,-42.9173692],[147.0484328,-42.9175052],[147.0485807,-42.9177136],[147.0486429,-42.9178013],[147.0488513,-42.9179363],[147.0490234,-42.9180008],[147.0499034,-42.9183304],[147.0518038,-42.9185848],[147.0524618,-42.9186728],[147.0525897,-42.9181057],[147.0548798,-42.9183843],[147.0571561,-42.9186613],[147.0575884,-42.9168903],[147.0599383,-42.9171695],[147.060481,-42.9172339],[147.0604813,-42.917234],[147.0605862,-42.9167822],[147.0606422,-42.9165411],[147.0609623,-42.9151622],[147.0610189,-42.9149183],[147.063174,-42.9151732],[147.0632692,-42.9147323],[147.0632812,-42.9144711],[147.0632073,-42.9141379],[147.0632179,-42.9140555],[147.0632316,-42.9139488],[147.0632649,-42.9139243],[147.0632682,-42.9139219],[147.0632684,-42.9139218],[147.0633066,-42.9139019],[147.0634942,-42.913804],[147.0635184,-42.9137917],[147.063599,-42.9137505],[147.0636535,-42.9137103],[147.0637214,-42.9136604],[147.063856,-42.9134982],[147.0640384,-42.912709],[147.0640384,-42.9127087],[147.0640698,-42.9127126],[147.0642056,-42.9127294],[147.0643181,-42.9127433],[147.0683876,-42.9132367],[147.0683003,-42.9135968],[147.0731049,-42.9142234],[147.0727574,-42.9157379],[147.0748545,-42.9160203],[147.0748555,-42.9160197],[147.074858,-42.9160183],[147.0748675,-42.9160221],[147.0748745,-42.916023],[147.0767339,-42.9162734],[147.0767342,-42.9162734],[147.0767318,-42.916284],[147.0766615,-42.9165892],[147.07662,-42.9167697],[147.0760558,-42.91922],[147.0728907,-42.9187938],[147.0723881,-42.9208667],[147.0736066,-42.921024],[147.074026,-42.9210781],[147.0740262,-42.9210781],[147.0740131,-42.9211321],[147.0739967,-42.9212001],[147.077335,-42.9216351],[147.077335,-42.9216351],[147.0771969,-42.9222076],[147.0765588,-42.924853],[147.0765587,-42.9248535],[147.0752309,-42.9246805],[147.0744964,-42.9245848],[147.0743473,-42.9245653],[147.074254,-42.9245532],[147.0742538,-42.9245531],[147.0738406,-42.9262778],[147.0732214,-42.9288626],[147.0747377,-42.9290537],[147.0747376,-42.929054],[147.0740083,-42.932043],[147.0738351,-42.932753],[147.0738346,-42.9327551],[147.073973,-42.9327715],[147.0771352,-42.9331464],[147.0771224,-42.9331931],[147.0766276,-42.9349996],[147.0767773,-42.9350338],[147.0768523,-42.935051],[147.0834887,-42.9365688],[147.0838545,-42.9355875],[147.0841893,-42.9346892],[147.0843781,-42.9341806],[147.0845069,-42.9338336],[147.0891753,-42.9358037],[147.0919144,-42.936323],[147.0918771,-42.936457],[147.0918771,-42.9364571],[147.092641,-42.9365215],[147.0949089,-42.9367128],[147.0970734,-42.9368886],[147.0970946,-42.9368914],[147.0975545,-42.9369513],[147.0990999,-42.9371583],[147.0994236,-42.9372016],[147.1005564,-42.9373268],[147.1014648,-42.9374272],[147.1014649,-42.937427],[147.1015036,-42.9372439],[147.101565,-42.9369479],[147.1017318,-42.9361917],[147.1024362,-42.932998],[147.1073413,-42.9335427],[147.106616,-42.9369433],[147.1065698,-42.9371542],[147.1063887,-42.9379803],[147.1064059,-42.9379821],[147.1064413,-42.9379858],[147.1064755,-42.9379894],[147.1065066,-42.9379927],[147.1065197,-42.9379941],[147.1065428,-42.9379965],[147.1066142,-42.9380045],[147.1066519,-42.9380087],[147.107595,-42.9381144],[147.109489,-42.9383265],[147.1094893,-42.9383257],[147.1094908,-42.9383217],[147.1094921,-42.9383185],[147.1097558,-42.9372548],[147.1098338,-42.9369402],[147.1106557,-42.9327679],[147.1131824,-42.9330378],[147.1133126,-42.9330516],[147.1134408,-42.9330652],[147.1144952,-42.933177],[147.1155877,-42.9332927],[147.1157807,-42.9324554],[147.1167969,-42.928003],[147.116797,-42.9280029],[147.1140385,-42.9276611],[147.1147575,-42.9244823],[147.117058,-42.9235151],[147.1179033,-42.9231597],[147.1203968,-42.9221217],[147.1218491,-42.9215171],[147.1218569,-42.9215166],[147.1218678,-42.9215159],[147.1218979,-42.9213397],[147.1219423,-42.9210801],[147.122377,-42.918535],[147.1223771,-42.9185348],[147.124447,-42.9187252],[147.1264809,-42.9189122],[147.1270376,-42.9189636],[147.1277851,-42.9190327],[147.1277856,-42.9190328],[147.1277966,-42.9189743],[147.1278084,-42.9189107],[147.1279657,-42.9182892],[147.1280915,-42.9177921],[147.1280916,-42.9177917],[147.1297999,-42.9179845],[147.1310745,-42.9181284],[147.1318844,-42.9144982],[147.131884,-42.9144981],[147.13139,-42.9144365],[147.1296281,-42.9142165],[147.1296278,-42.9142165],[147.1304365,-42.9107462],[147.1306038,-42.910028],[147.130654,-42.9098124],[147.1335179,-42.9101648],[147.135476,-42.9104057],[147.135476,-42.910406],[147.1352547,-42.911377],[147.1344718,-42.9148127],[147.1344721,-42.9148127],[147.136344,-42.9150522],[147.1366955,-42.9150971],[147.1374534,-42.9120222],[147.1459232,-42.9130364],[147.1476773,-42.9132463],[147.1483915,-42.9133318],[147.1484737,-42.9133435],[147.1486898,-42.9133743],[147.1486898,-42.913374],[147.1486936,-42.9133581],[147.1486983,-42.9133387],[147.148699,-42.9133376],[147.1487095,-42.9133212],[147.148723,-42.9133004],[147.1487683,-42.9132704],[147.1488291,-42.9132422],[147.1489006,-42.9132241],[147.148901,-42.913224],[147.1489938,-42.9131976],[147.1490219,-42.9131941],[147.1490525,-42.9131904],[147.1491303,-42.9131954],[147.1491329,-42.9131957],[147.1491357,-42.9131961],[147.1492491,-42.9132104],[147.1493296,-42.9132234],[147.1493535,-42.913237],[147.149372,-42.9132475],[147.1494047,-42.9132593],[147.1494468,-42.9132745],[147.1494821,-42.913288],[147.1494915,-42.9132916],[147.1494975,-42.9132939],[147.1496014,-42.9133105],[147.1496629,-42.9133268],[147.1497757,-42.9133517],[147.1497806,-42.9133528],[147.1498217,-42.9133569],[147.1498874,-42.9133569],[147.1499475,-42.9133628],[147.1499778,-42.9133667],[147.150031,-42.9133553],[147.1500434,-42.9133526],[147.150109,-42.9133384],[147.1501381,-42.9133241],[147.1501746,-42.9133062],[147.1502349,-42.9132901],[147.1502744,-42.9132817],[147.1503115,-42.9132739],[147.1503325,-42.9132673],[147.1503481,-42.9132605],[147.1503539,-42.913258],[147.1503687,-42.9132479],[147.1503687,-42.9132482],[147.1503683,-42.9132986],[147.1503679,-42.9133506],[147.150368,-42.9133506],[147.1556449,-42.9141309],[147.1556449,-42.914131],[147.1542409,-42.918878],[147.1541416,-42.9192364],[147.1572968,-42.9196893],[147.1557002,-42.9255546],[147.155328,-42.926922],[147.1552735,-42.9271224],[147.1552031,-42.9273803],[147.1547904,-42.9288966],[147.1547026,-42.929219],[147.1543552,-42.9291552],[147.153999,-42.9301601],[147.1539964,-42.9301694],[147.1538465,-42.9307067],[147.1531869,-42.9331386],[147.1531737,-42.9331876],[147.1531628,-42.9332274],[147.155552,-42.9335701],[147.1555524,-42.9335702],[147.1547831,-42.9363942],[147.1539994,-42.9362832],[147.1528392,-42.9361187],[147.1523925,-42.9360537],[147.1523327,-42.9362876],[147.1521688,-42.9368914],[147.1519305,-42.9377552],[147.1515387,-42.9391333],[147.1523812,-42.9392429],[147.152742,-42.9392899],[147.1540256,-42.9394609],[147.1570789,-42.9398676],[147.1573356,-42.9388334],[147.1573359,-42.9388334],[147.1631973,-42.9395965],[147.166265,-42.9399958],[147.1665321,-42.9400306],[147.1665251,-42.9400596],[147.164899,-42.946768],[147.164906,-42.9467689],[147.1650711,-42.9467889],[147.1654963,-42.9468404],[147.1687042,-42.9472293],[147.1691454,-42.9447784],[147.174046,-42.9453449],[147.1742544,-42.945369],[147.1733949,-42.94926],[147.1728958,-42.9515189],[147.1700698,-42.9511963],[147.16878,-42.951049],[147.1684606,-42.952413],[147.1684156,-42.9526061],[147.1683731,-42.9527908],[147.1683353,-42.9529544],[147.1680424,-42.9542162],[147.167981,-42.9544805],[147.1679556,-42.9546071],[147.1679007,-42.9548802],[147.1672318,-42.9577305],[147.169208,-42.959987],[147.1692083,-42.9599874],[147.1695905,-42.959813],[147.1717351,-42.9588154],[147.1717641,-42.9588019],[147.1721636,-42.958617],[147.1738941,-42.9578161],[147.1738944,-42.957816],[147.1742626,-42.9582439],[147.174509,-42.9585303],[147.176762,-42.957497],[147.1767624,-42.9574968],[147.1787304,-42.9565845],[147.1787309,-42.9565851],[147.1789089,-42.956795],[147.1795565,-42.9575589],[147.1804351,-42.9585824],[147.1810359,-42.9592824],[147.183038,-42.9583545],[147.1847723,-42.9575506],[147.1862403,-42.9592368],[147.1892854,-42.96272],[147.1896249,-42.9631112],[147.189861,-42.9633833],[147.1912124,-42.9626602],[147.1907147,-42.9621445],[147.1897879,-42.9611842],[147.1897881,-42.9611841],[147.19181,-42.9601103],[147.1937679,-42.9590643],[147.1949871,-42.9602556],[147.1952319,-42.9604948],[147.1955033,-42.9603493],[147.1958411,-42.9601683],[147.1967758,-42.9596674],[147.1994783,-42.958503],[147.1984459,-42.9573718],[147.1975344,-42.9562664],[147.1966601,-42.955196],[147.1966597,-42.9551955],[147.1973545,-42.9548326],[147.1975295,-42.9547368],[147.200161,-42.9533907],[147.2012981,-42.9528226],[147.2031927,-42.9518641],[147.201776,-42.9503354],[147.2002743,-42.9487149],[147.200274,-42.9487146],[147.2047397,-42.9464697],[147.2054786,-42.9460983],[147.2074918,-42.9450884],[147.210072,-42.9437922],[147.2101148,-42.9438331],[147.2102641,-42.9439757],[147.2106419,-42.9443365],[147.2106419,-42.9443369],[147.2106419,-42.944337],[147.2106202,-42.9457218],[147.2109531,-42.9466712],[147.2109617,-42.9466955],[147.2111635,-42.9469689],[147.2112672,-42.9473791],[147.2113358,-42.9476507],[147.2113388,-42.9476622],[147.2114043,-42.9479214],[147.2113805,-42.9479297],[147.210848,-42.9481147],[147.2084011,-42.949031],[147.208374,-42.9490411],[147.2083737,-42.9490412],[147.2083323,-42.9492198],[147.2080898,-42.9502657],[147.2072624,-42.9509518],[147.2070889,-42.9511119],[147.2070843,-42.9511161],[147.2072441,-42.9512875],[147.2075365,-42.9516009],[147.207585,-42.951653],[147.2076099,-42.9516797],[147.2076219,-42.951517],[147.2076593,-42.9514676],[147.2077454,-42.9513538],[147.207787,-42.9513076],[147.2079068,-42.9511745],[147.2081264,-42.951008],[147.2081329,-42.9510031],[147.2082612,-42.9509152],[147.2084319,-42.9507982],[147.2085123,-42.9506271],[147.2085761,-42.9505419],[147.2086735,-42.950412],[147.2087721,-42.9502805],[147.2088347,-42.950197],[147.2090226,-42.9499064],[147.2092565,-42.9496024],[147.2092743,-42.9495831],[147.2094286,-42.9494153],[147.2095548,-42.9493161],[147.2096009,-42.9492798],[147.2098219,-42.949192],[147.2099628,-42.9491553],[147.2101292,-42.9491119],[147.2101307,-42.9491118],[147.210426,-42.9490875],[147.2106455,-42.9490081],[147.2106578,-42.9490036],[147.2106889,-42.9489899],[147.2111112,-42.9488038],[147.2113368,-42.9487043],[147.2117355,-42.9484849],[147.2120232,-42.9483421],[147.2122093,-42.9482497],[147.2122096,-42.9482496],[147.2123442,-42.9481301],[147.2124675,-42.9478874],[147.2125305,-42.9477313],[147.2125317,-42.9477283],[147.212511,-42.9476772],[147.2125111,-42.9476771],[147.2126863,-42.9475559],[147.2131736,-42.947219],[147.2139458,-42.9466849],[147.215133,-42.9458626],[147.2165902,-42.9448532],[147.216643,-42.9448166],[147.2166849,-42.9447876],[147.2167499,-42.9447426],[147.2168476,-42.9446749],[147.2216983,-42.9413144],[147.2258172,-42.9444791],[147.2245687,-42.9453841],[147.2228276,-42.946646],[147.2255278,-42.9486185],[147.2255967,-42.9486689],[147.2256482,-42.9487065],[147.2257183,-42.9486535],[147.2258226,-42.9485749],[147.2272574,-42.9474926],[147.227359,-42.947416],[147.2311908,-42.9445437],[147.2316367,-42.9448302],[147.2321442,-42.9451564],[147.2359861,-42.9419444],[147.2365074,-42.9399851],[147.236507,-42.9399851],[147.2325746,-42.93943],[147.233194,-42.9370439],[147.2332691,-42.9367547],[147.2332919,-42.9366696],[147.2335056,-42.9358697],[147.2395567,-42.9367335],[147.2399179,-42.9353927],[147.2400195,-42.934999],[147.2402524,-42.9340967],[147.2391133,-42.9337837],[147.2390709,-42.933772],[147.239058,-42.9337684],[147.239042,-42.933764],[147.2390402,-42.9337636],[147.2372814,-42.9332802],[147.2364046,-42.9330391],[147.2367266,-42.9317592],[147.2370195,-42.9306008],[147.2375044,-42.9286824],[147.2377809,-42.9275723],[147.2379097,-42.927055],[147.23791,-42.9270551],[147.2416688,-42.9282594],[147.2416689,-42.928259],[147.2420778,-42.9266708],[147.242524,-42.924928],[147.242524,-42.9249278],[147.2429883,-42.9231501],[147.2434481,-42.9213495],[147.2464831,-42.9216974],[147.2490488,-42.9220414],[147.2491919,-42.9220805],[147.2493413,-42.9209992],[147.2493414,-42.9209988],[147.2504288,-42.921524],[147.2511269,-42.9218612],[147.2518156,-42.9221982],[147.2519496,-42.9222638],[147.2519737,-42.9222734],[147.2528744,-42.9226329],[147.2529305,-42.9226553],[147.2530739,-42.9227132],[147.2536971,-42.9229593],[147.2537698,-42.9229886],[147.2539555,-42.9230636],[147.2543501,-42.9232207],[147.2545828,-42.9233133],[147.2545829,-42.923313],[147.2546091,-42.9232433],[147.2546261,-42.9231978],[147.2547092,-42.9229769],[147.2547275,-42.9229283],[147.2547497,-42.9228692],[147.2547499,-42.9228692],[147.2548408,-42.9228688],[147.2551973,-42.9228672],[147.255306,-42.92289],[147.2556758,-42.9229675],[147.256599,-42.9233665],[147.2568966,-42.9233859],[147.2575627,-42.9232256],[147.2581392,-42.9231339],[147.2585014,-42.9230762],[147.2586972,-42.9229974],[147.2587728,-42.922967],[147.2590727,-42.9227451],[147.2592704,-42.9225988],[147.259627,-42.9223351],[147.2598055,-42.9222784],[147.2598306,-42.9221884],[147.259833,-42.9221796],[147.2598667,-42.9220588],[147.2598914,-42.9219701],[147.2598694,-42.9219032],[147.2598153,-42.9217371],[147.2597546,-42.9215509],[147.2596525,-42.9213398],[147.2595064,-42.9210377],[147.2594603,-42.9209424],[147.259513,-42.9208722],[147.2596345,-42.9207104],[147.2600232,-42.92058],[147.2601342,-42.9205428],[147.2602423,-42.9204527],[147.2603979,-42.9203232],[147.260398,-42.920323],[147.2603997,-42.9203169],[147.2606013,-42.9195912],[147.2607025,-42.919218],[147.2609382,-42.918348],[147.2610893,-42.9177895],[147.2610895,-42.917789],[147.2611491,-42.9175727],[147.2611494,-42.9175717],[147.2613044,-42.9169943],[147.2613372,-42.9168253],[147.2613498,-42.91676],[147.2615218,-42.9160803],[147.2616618,-42.9154548],[147.2616828,-42.9153601],[147.2617234,-42.9151886],[147.2617922,-42.914898],[147.261867,-42.9145824],[147.2621712,-42.9147473],[147.2624152,-42.9148425],[147.2625157,-42.9148772],[147.262602,-42.9149101],[147.262638,-42.9149239],[147.2626659,-42.914931],[147.2627896,-42.9149624],[147.2629997,-42.9149868],[147.2630103,-42.914988],[147.2632304,-42.915004],[147.263463,-42.9150204],[147.2636434,-42.9150244],[147.263806,-42.9150434],[147.2640335,-42.91507],[147.2640724,-42.9150746],[147.2642451,-42.9150899],[147.264257,-42.9150909],[147.264257,-42.9150909],[147.2642637,-42.9149746],[147.264265,-42.9149512],[147.2651907,-42.9149042],[147.2655109,-42.9148879],[147.2655097,-42.9148773],[147.265505,-42.9148323],[147.2654751,-42.91456],[147.2653929,-42.9138879],[147.2653785,-42.9137701],[147.2654219,-42.9136358],[147.2656636,-42.9136103],[147.2660786,-42.9135665],[147.2660786,-42.913566],[147.2660576,-42.9133835],[147.2660483,-42.9132959],[147.2660383,-42.9132027],[147.2660225,-42.9130484],[147.2660199,-42.9130229],[147.2660008,-42.912843],[147.2659953,-42.9127949],[147.2659806,-42.9126647],[147.2659622,-42.9124816],[147.2659442,-42.9123031],[147.2659279,-42.9121416],[147.2659257,-42.9121202],[147.2659067,-42.9119331],[147.2659066,-42.911933],[147.2653895,-42.912086],[147.2652779,-42.9121191],[147.2651836,-42.9119482],[147.2648683,-42.9113768],[147.2643851,-42.9105506],[147.2639102,-42.9097149],[147.2634842,-42.9089643],[147.2639064,-42.9088342],[147.2642447,-42.9087455],[147.2648477,-42.9085875],[147.2652596,-42.9085156],[147.2656967,-42.9085205],[147.2659765,-42.908443],[147.2662021,-42.9083804],[147.2662011,-42.9083802],[147.2648193,-42.9081195],[147.2631495,-42.9083941],[147.2631494,-42.9083939],[147.262964,-42.9080806],[147.2618934,-42.9061751],[147.2610031,-42.9045903],[147.2609321,-42.904466],[147.2609077,-42.9044231],[147.266318,-42.9023797],[147.2664462,-42.9023399],[147.26665,-42.9022766],[147.2698392,-42.9012795],[147.2700238,-42.9011819],[147.2700348,-42.9011761],[147.2699988,-42.9011127],[147.269308,-42.8998988],[147.2689799,-42.8993328],[147.2689798,-42.8993326],[147.2689781,-42.8993296],[147.2690395,-42.8993108],[147.2690765,-42.8992995],[147.269078,-42.899299],[147.2690783,-42.8992989],[147.2691431,-42.8992673],[147.2692094,-42.8992252],[147.2692765,-42.8991735],[147.2693505,-42.8991209],[147.2694381,-42.8990663],[147.2695592,-42.8989947],[147.269671,-42.8989211],[147.2697931,-42.8988555],[147.269737,-42.8967946],[147.2697342,-42.8966941],[147.2696736,-42.8956324],[147.2665817,-42.8952973],[147.2675474,-42.8928705],[147.2675475,-42.8928705],[147.267548,-42.8928708],[147.2683938,-42.8934321],[147.2688031,-42.8937037],[147.2700539,-42.8900779],[147.270054,-42.8900776],[147.2684382,-42.887691],[147.2680595,-42.8871298],[147.268043,-42.8871053],[147.2664702,-42.8847742],[147.2664701,-42.8847741],[147.2649045,-42.883791],[147.2635532,-42.8829424],[147.2627533,-42.8824401],[147.2627531,-42.8824401],[147.2627444,-42.8824391],[147.2626669,-42.8824305],[147.2624944,-42.8823886],[147.2623703,-42.8823441],[147.2621942,-42.8822865],[147.2620637,-42.8822134],[147.2620468,-42.882204],[147.2619597,-42.882152],[147.2619008,-42.8821168],[147.2617958,-42.8820294],[147.2616382,-42.8819065],[147.2615862,-42.8818682],[147.2614923,-42.8817992],[147.2614132,-42.8817421],[147.261413,-42.881742],[147.261413,-42.881742],[147.2612595,-42.8816746],[147.2611622,-42.8816288],[147.2611231,-42.8816004],[147.2611091,-42.8815902],[147.2610784,-42.8815615],[147.2610381,-42.8815239],[147.2609514,-42.8814778],[147.2608157,-42.8814145],[147.2606982,-42.8813638],[147.2606924,-42.8813613],[147.2606062,-42.8813284],[147.260467,-42.8812482],[147.2604302,-42.8812283],[147.2601871,-42.8810973],[147.2600833,-42.881043],[147.260044,-42.8810225],[147.2599452,-42.8809842],[147.2599076,-42.8809697],[147.2597335,-42.8808929],[147.2597022,-42.8808825],[147.2596386,-42.8808614],[147.25961,-42.8808478],[147.2595823,-42.8808346],[147.2594738,-42.8807529],[147.2594661,-42.8807471],[147.2594493,-42.880735],[147.2593474,-42.880661],[147.2592343,-42.8805712],[147.2592114,-42.8805568],[147.2590803,-42.880474],[147.2589121,-42.880362],[147.2593823,-42.8801174],[147.2612267,-42.879158],[147.263823,-42.8778197],[147.2671879,-42.875417],[147.2671881,-42.8754168],[147.265981,-42.875076],[147.2638625,-42.8746366],[147.2616081,-42.8743387],[147.2616078,-42.8743386],[147.2607933,-42.874231],[147.2602027,-42.8741668],[147.2600673,-42.8741521],[147.2592964,-42.8740718],[147.259135,-42.8740546],[147.2590684,-42.8740781],[147.2590307,-42.8741028],[147.2588593,-42.8741436],[147.2586661,-42.874194],[147.258666,-42.874194],[147.2584249,-42.8742441],[147.258193,-42.8743094],[147.2580048,-42.8743585],[147.2579129,-42.8743788],[147.257859,-42.8743908],[147.257766,-42.8744088],[147.2577394,-42.874414],[147.2575844,-42.8744234],[147.2574944,-42.8744268],[147.2573685,-42.8744315],[147.257264,-42.874448],[147.257244,-42.8744511],[147.2571984,-42.8744619],[147.2570602,-42.8744947],[147.2568794,-42.8745368],[147.2568546,-42.8745429],[147.2567292,-42.8745732],[147.2566343,-42.8745928],[147.256566,-42.8746068],[147.2564973,-42.874613],[147.2563836,-42.8746234],[147.2562029,-42.8746174],[147.2561561,-42.8746159],[147.2559827,-42.8746028],[147.2558423,-42.874582],[147.2558421,-42.874582],[147.2558393,-42.8745823],[147.2557943,-42.8745877],[147.2557213,-42.8746157],[147.2556052,-42.8746688],[147.2555983,-42.8746713],[147.2555793,-42.8746784],[147.2555604,-42.8746854],[147.2554324,-42.874733],[147.2553556,-42.8747651],[147.2551465,-42.8748502],[147.2551435,-42.8748513],[147.2549537,-42.8749211],[147.2547641,-42.8749834],[147.2546441,-42.8750118],[147.2546351,-42.8750139],[147.2546206,-42.8750162],[147.2544782,-42.8750384],[147.254355,-42.8750392],[147.2543388,-42.8750386],[147.254309,-42.8750377],[147.2542288,-42.875035],[147.2541008,-42.8750234],[147.2539516,-42.8750117],[147.253845,-42.8750102],[147.2537178,-42.8750083],[147.2534545,-42.8750364],[147.2532259,-42.8750743],[147.2529711,-42.8751253],[147.2528411,-42.8751457],[147.2527139,-42.8751657],[147.2525624,-42.8752007],[147.2524682,-42.8752076],[147.2523627,-42.8752154],[147.2522598,-42.8752165],[147.252163,-42.8752177],[147.2519533,-42.8752332],[147.2517627,-42.875251],[147.2517572,-42.8752515],[147.2516345,-42.8752615],[147.2515562,-42.8752679],[147.2513514,-42.8752917],[147.251271,-42.8753014],[147.2511789,-42.8753124],[147.2510684,-42.8753181],[147.2510165,-42.8753208],[147.250947,-42.8753262],[147.2508142,-42.8753364],[147.2505604,-42.8753471],[147.2503611,-42.8753796],[147.2501909,-42.8754246],[147.2500865,-42.8754517],[147.2499952,-42.8754754],[147.2499218,-42.8755024],[147.2498348,-42.8755346],[147.2497358,-42.8755695],[147.2496742,-42.8755912],[147.2496691,-42.8755931],[147.249662,-42.8755955],[147.2495329,-42.875638],[147.2494288,-42.87567],[147.2493878,-42.8756771],[147.2493179,-42.8756891],[147.2492424,-42.8756942],[147.2491592,-42.8756998],[147.2490317,-42.8756909],[147.2490193,-42.87569],[147.2490191,-42.87569],[147.249019,-42.87569],[147.2488224,-42.8756649],[147.2486817,-42.8756825],[147.2485357,-42.8757006],[147.2485067,-42.8757041],[147.2482373,-42.8757212],[147.2479584,-42.8757542],[147.2477258,-42.8757545],[147.2475608,-42.8757389],[147.247507,-42.8757338],[147.2474371,-42.8757169],[147.2473314,-42.8756914],[147.2473249,-42.875688],[147.2472038,-42.8756253],[147.2470708,-42.8755644],[147.2470657,-42.875562],[147.2469023,-42.8755425],[147.2467789,-42.8755703],[147.2467344,-42.8755948],[147.2467245,-42.8756002],[147.246744,-42.8756538],[147.246744,-42.8756539],[147.2467427,-42.8756618],[147.2467374,-42.8756955],[147.246737,-42.875696],[147.2467015,-42.8757479],[147.2466413,-42.8757721],[147.2465867,-42.875794],[147.2465866,-42.8757941],[147.2465858,-42.8757941],[147.2464827,-42.8758036],[147.2462243,-42.8758349],[147.2462084,-42.8758364],[147.2460064,-42.8758545],[147.2459362,-42.8758532],[147.2457763,-42.8758502],[147.2457399,-42.8758509],[147.2455873,-42.8758539],[147.2455412,-42.8758587],[147.2454156,-42.8758538],[147.2453792,-42.8758607],[147.2452479,-42.8758854],[147.2451183,-42.8759253],[147.2450598,-42.8759592],[147.2450157,-42.8759848],[147.2448847,-42.8760595],[147.244884,-42.87606],[147.2447421,-42.8761514],[147.2445851,-42.8762451],[147.2444879,-42.876304],[147.2444548,-42.876324],[147.2444048,-42.8763579],[147.2443138,-42.8763975],[147.2441568,-42.8764602],[147.2441323,-42.87647],[147.2438692,-42.8765879],[147.2438559,-42.8765944],[147.2437219,-42.8766596],[147.2436629,-42.8766904],[147.2436193,-42.8767132],[147.2434978,-42.8767572],[147.2433589,-42.8767995],[147.2432049,-42.8768832],[147.2431759,-42.8769025],[147.2430438,-42.8769907],[147.2429394,-42.8770674],[147.2429334,-42.8770717],[147.2429332,-42.8770718],[147.2427968,-42.8771507],[147.2425602,-42.8772446],[147.2423582,-42.8773236],[147.2422934,-42.8773535],[147.2422326,-42.8773814],[147.2422085,-42.8773945],[147.2421237,-42.8774405],[147.2420649,-42.8774683],[147.2420093,-42.8774945],[147.2418914,-42.8775303],[147.2417418,-42.8775681],[147.2416329,-42.8776184],[147.2414785,-42.8776732],[147.2413855,-42.8777113],[147.2412419,-42.8777699],[147.2410001,-42.8778937],[147.2407827,-42.8780301],[147.2406745,-42.8780892],[147.2405762,-42.878143],[147.2403623,-42.8782661],[147.2401571,-42.8783804],[147.2399994,-42.8784646],[147.2399246,-42.8785045],[147.2398002,-42.8785589],[147.2396986,-42.8786034],[147.2395329,-42.878631],[147.2394562,-42.8786438],[147.2391301,-42.8787096],[147.2390026,-42.8787748],[147.2389489,-42.8788022],[147.2388363,-42.8789066],[147.2386062,-42.8790701],[147.2385333,-42.8791264],[147.2384453,-42.8791946],[147.2382637,-42.8793119],[147.2380979,-42.8794396],[147.2379537,-42.8795529],[147.2379044,-42.8795879],[147.2377784,-42.8796775],[147.2376548,-42.8797901],[147.2376449,-42.879799],[147.2374911,-42.8798959],[147.237491,-42.879896],[147.2373328,-42.8799805],[147.2372006,-42.8800608],[147.2370818,-42.880168],[147.2369487,-42.8803701],[147.2367765,-42.8805775],[147.23666,-42.880676],[147.2366599,-42.880676],[147.2366595,-42.8806765],[147.2366571,-42.8806781],[147.2366273,-42.8806987],[147.2365573,-42.8807277],[147.236527,-42.8807402],[147.2364861,-42.8807579],[147.2364403,-42.8807776],[147.2364142,-42.8807985],[147.236367,-42.8808363],[147.236226,-42.880962],[147.2360834,-42.8810561],[147.2359939,-42.8811136],[147.235907,-42.8811849],[147.2358811,-42.8812061],[147.2358574,-42.8812277],[147.2357931,-42.8812864],[147.2357008,-42.8813728],[147.2356526,-42.8814119],[147.23563,-42.8814302],[147.2355645,-42.8814628],[147.2355477,-42.8814711],[147.2355396,-42.8814749],[147.2354437,-42.8815205],[147.2353536,-42.8815712],[147.235338,-42.8815799],[147.2352487,-42.8816571],[147.2351947,-42.881767],[147.2351887,-42.881793],[147.2351765,-42.8818454],[147.2351562,-42.8819088],[147.2351406,-42.8819579],[147.2351111,-42.882025],[147.2350964,-42.8820586],[147.2350493,-42.8821217],[147.2350356,-42.8821386],[147.2349721,-42.8822166],[147.2349601,-42.8822322],[147.2348986,-42.8823115],[147.2348539,-42.8823673],[147.2348168,-42.8823924],[147.2347718,-42.8824229],[147.2347022,-42.8824588],[147.2346592,-42.882481],[147.2346437,-42.8824976],[147.2345996,-42.8825447],[147.2345489,-42.882614],[147.2345403,-42.8826258],[147.2345324,-42.8826348],[147.2344759,-42.8826995],[147.2344259,-42.8827442],[147.2344082,-42.8827601],[147.2343877,-42.8827757],[147.2343206,-42.8828267],[147.2342666,-42.8828626],[147.2342397,-42.8828805],[147.2341978,-42.8829169],[147.2341448,-42.8829629],[147.2341447,-42.882963],[147.2341445,-42.8829629],[147.2313772,-42.8812733],[147.2282812,-42.8793829],[147.2282812,-42.8793829],[147.228281,-42.8793828],[147.2316196,-42.8777192],[147.23453,-42.8762688],[147.238393,-42.8743435],[147.2410018,-42.8730432],[147.2410812,-42.8730945],[147.2412022,-42.8731727],[147.2453299,-42.8720035],[147.2453304,-42.8720034],[147.2486425,-42.8714041],[147.2511555,-42.8709533],[147.2526099,-42.8706948],[147.2534725,-42.8705372],[147.2535573,-42.8705217],[147.2549962,-42.8700264],[147.2555882,-42.8698226],[147.2565798,-42.8694813],[147.2565795,-42.8694812],[147.2555609,-42.8689543],[147.2552161,-42.8687759],[147.2552159,-42.8687758],[147.2553997,-42.8686585],[147.2556324,-42.8685101],[147.2560249,-42.8684624],[147.2562838,-42.868431],[147.2560547,-42.8674677],[147.2560438,-42.8674079],[147.2560459,-42.8673918],[147.256046,-42.867391],[147.256046,-42.8673908],[147.2560821,-42.8672685],[147.2566063,-42.8654913],[147.2564058,-42.864672],[147.2564036,-42.864663],[147.2563062,-42.8643067],[147.256407,-42.8639782],[147.2568646,-42.8624869],[147.2572345,-42.8618392],[147.2572619,-42.8617913],[147.2572619,-42.8617913],[147.2569959,-42.8609073],[147.2565926,-42.8605148],[147.256026,-42.8599635],[147.2561262,-42.8580655],[147.256126,-42.8580655],[147.2541534,-42.858078],[147.2519522,-42.858092],[147.2519413,-42.8580921],[147.2518987,-42.8580923],[147.251837,-42.8580926],[147.251804,-42.858093],[147.251788,-42.8580932],[147.2516154,-42.858113],[147.2512804,-42.8581516],[147.2492742,-42.8581208],[147.2492661,-42.8581611],[147.2490741,-42.8591197],[147.2489632,-42.8590646],[147.2477085,-42.8584415],[147.2477073,-42.8584406],[147.2475867,-42.8583466],[147.2464404,-42.8577688],[147.2463356,-42.857716],[147.2461812,-42.8576381],[147.24606,-42.8575776],[147.2454466,-42.857271],[147.2453957,-42.8572446],[147.2446664,-42.8568699],[147.243673,-42.8563593],[147.2434846,-42.8562705],[147.2428008,-42.8559067],[147.2422746,-42.8556268],[147.2422739,-42.8556265],[147.2423788,-42.8555912],[147.2423909,-42.8555871],[147.2424099,-42.8555823],[147.2425,-42.8555596],[147.2426083,-42.8555417],[147.2427326,-42.8555071],[147.242787,-42.8554953],[147.2428026,-42.8554892],[147.2430574,-42.8554391],[147.2430768,-42.8554354],[147.243101,-42.8554308],[147.2431312,-42.855425],[147.2431621,-42.8554191],[147.2431906,-42.8554136],[147.2432751,-42.8553973],[147.2433481,-42.8553714],[147.2434598,-42.8553214],[147.2434969,-42.8552882],[147.243531,-42.8552578],[147.2435412,-42.8552469],[147.2435416,-42.8552448],[147.243542,-42.8552429],[147.2435626,-42.8552163],[147.2435729,-42.855171],[147.243574,-42.8551661],[147.2435922,-42.8550862],[147.2435962,-42.855069],[147.2435988,-42.855058],[147.2436048,-42.8550445],[147.2436082,-42.8550367],[147.2436096,-42.8550332],[147.2436108,-42.8550302],[147.2436121,-42.855027],[147.2436125,-42.8550258],[147.2436204,-42.8550065],[147.2436262,-42.8549994],[147.2436422,-42.8549794],[147.2436729,-42.8549513],[147.2436811,-42.854944],[147.2437003,-42.8549268],[147.2437007,-42.8549265],[147.2437475,-42.8548953],[147.2437477,-42.8548952],[147.2437769,-42.8548852],[147.243896,-42.8548681],[147.2439821,-42.8548341],[147.2440275,-42.8547924],[147.2440395,-42.8547814],[147.2440498,-42.8547584],[147.2440507,-42.854755],[147.2440533,-42.8547448],[147.2440594,-42.8547081],[147.2440544,-42.8546612],[147.244054,-42.8546474],[147.2440537,-42.8546378],[147.2440567,-42.8546109],[147.2440767,-42.8545813],[147.2440799,-42.8545771],[147.2440946,-42.8545639],[147.2441044,-42.8545575],[147.2441078,-42.8545552],[147.2441199,-42.8545473],[147.2441339,-42.854541],[147.244135,-42.8545404],[147.2441364,-42.8545391],[147.2441381,-42.8545375],[147.2441862,-42.8545201],[147.2441971,-42.854514],[147.2443059,-42.8544823],[147.2443935,-42.8544255],[147.2444319,-42.8544043],[147.2444393,-42.8544002],[147.2445169,-42.8543457],[147.2445631,-42.8543229],[147.2445634,-42.8543227],[147.2445981,-42.8542886],[147.2445986,-42.8542865],[147.2445991,-42.8542843],[147.2446566,-42.854234],[147.244699,-42.8541817],[147.2447191,-42.8541457],[147.2447244,-42.8541165],[147.244735,-42.854053],[147.2447378,-42.8540365],[147.244752,-42.8539986],[147.244753,-42.8539825],[147.2447543,-42.8539632],[147.2447561,-42.853938],[147.244757,-42.8539321],[147.2447579,-42.8539262],[147.2447635,-42.853835],[147.2447876,-42.8537944],[147.2448036,-42.8537675],[147.244868,-42.8536861],[147.2448744,-42.8536776],[147.2449216,-42.8536147],[147.2449615,-42.8535606],[147.2449832,-42.8535313],[147.2450075,-42.8534978],[147.2450367,-42.8534578],[147.2450682,-42.8534239],[147.2451011,-42.8533884],[147.2451352,-42.8533576],[147.2451628,-42.8533328],[147.2451935,-42.8532923],[147.2452111,-42.8532692],[147.2452483,-42.8531602],[147.2452652,-42.8530904],[147.245267,-42.8530829],[147.245267,-42.8530828],[147.2452661,-42.8530775],[147.2452504,-42.8529819],[147.2452338,-42.8528629],[147.2452349,-42.8528376],[147.2452362,-42.8528074],[147.2452469,-42.8527582],[147.2452547,-42.8527222],[147.2452572,-42.852706],[147.2452626,-42.8526707],[147.2452828,-42.8524707],[147.245267,-42.8523437],[147.2452376,-42.8521231],[147.2452388,-42.852071],[147.2452473,-42.8520304],[147.245249,-42.852022],[147.2452491,-42.8520219],[147.2452759,-42.8520111],[147.2452955,-42.8520033],[147.2452958,-42.8520031],[147.2453472,-42.8519696],[147.2453647,-42.851963],[147.2453716,-42.8519609],[147.2453933,-42.8519543],[147.2454038,-42.8519384],[147.2454529,-42.8518897],[147.2454958,-42.8518471],[147.24563,-42.851775],[147.2456301,-42.8517749],[147.2457059,-42.8517698],[147.2457335,-42.8517651],[147.2457511,-42.8517622],[147.2458281,-42.851726],[147.2458935,-42.8516914],[147.2459534,-42.8516597],[147.2459806,-42.8516447],[147.2460198,-42.8516232],[147.2460292,-42.8516186],[147.2460409,-42.8516129],[147.2459792,-42.8515573],[147.2459791,-42.8515571],[147.245979,-42.851557],[147.2459739,-42.8515505],[147.2459742,-42.8515503],[147.2460475,-42.8515171],[147.2461567,-42.8514675],[147.2461693,-42.8514619],[147.2464767,-42.8513251],[147.2466087,-42.8512664],[147.246868,-42.8511738],[147.2472007,-42.8510551],[147.2472366,-42.8510423],[147.2472469,-42.8510386],[147.2472574,-42.8510348],[147.2472686,-42.8510308],[147.2473238,-42.8510156],[147.2476285,-42.8509312],[147.2477176,-42.8509066],[147.2479899,-42.8508312],[147.2480437,-42.8507914],[147.248112,-42.8507408],[147.248153,-42.8506186],[147.248183,-42.850529],[147.2484385,-42.8497676],[147.2485628,-42.8495833],[147.2485714,-42.8495706],[147.2486089,-42.849515],[147.2487676,-42.8494336],[147.2490661,-42.8493709],[147.2493302,-42.8493154],[147.2496368,-42.8491871],[147.2495688,-42.8491505],[147.2494671,-42.8491254],[147.2494283,-42.8491159],[147.2491671,-42.8489869],[147.2484355,-42.848597],[147.2473177,-42.8480409],[147.2467967,-42.847782],[147.2456298,-42.8472025],[147.2449226,-42.8468498],[147.2443847,-42.8465798],[147.2436267,-42.8462127],[147.2436186,-42.8462088],[147.2436025,-42.8462007],[147.2428938,-42.8458436],[147.2424393,-42.8456151],[147.2423695,-42.84558],[147.2420859,-42.845438],[147.2416436,-42.8452061],[147.2412821,-42.8450381],[147.2408424,-42.8448339],[147.2406459,-42.8447449],[147.2405119,-42.8446842],[147.2397446,-42.8443269],[147.2395326,-42.8442232],[147.2390452,-42.8439849],[147.2390447,-42.8439846],[147.2396569,-42.8436699],[147.2397172,-42.8436389],[147.2398259,-42.8435895],[147.2400909,-42.843469],[147.2403075,-42.8433397],[147.2406724,-42.8431219],[147.2408846,-42.8430219],[147.2413814,-42.8427875],[147.2415979,-42.8426918],[147.2418338,-42.8425874],[147.2421092,-42.8424641],[147.2425616,-42.8422324],[147.2430257,-42.8419872],[147.2430507,-42.8419739],[147.2432234,-42.8418774],[147.2436973,-42.8416125],[147.2438462,-42.8415184],[147.2439364,-42.8414488],[147.244004,-42.8413966],[147.2440575,-42.8413511],[147.244242,-42.8411946],[147.2444017,-42.841059],[147.2444696,-42.8409983],[147.2445607,-42.840917],[147.2445836,-42.8408965],[147.2445893,-42.8408928],[147.2445985,-42.8408869],[147.2444918,-42.8408306],[147.2436737,-42.8403834],[147.2436341,-42.8403617],[147.24297,-42.8399987],[147.2427793,-42.8398944],[147.2422123,-42.8395845],[147.2422074,-42.8395818],[147.2443726,-42.8381392],[147.2424698,-42.8363738],[147.2423967,-42.8363059],[147.2423286,-42.8362429],[147.2436786,-42.8355342],[147.2437224,-42.8354612],[147.243722,-42.835461],[147.2432821,-42.8352473],[147.2427049,-42.8349669],[147.2424294,-42.8348318],[147.241301,-42.8342775],[147.2406334,-42.8339494],[147.2379498,-42.8345064],[147.2375277,-42.834594],[147.2366396,-42.8347896],[147.2336937,-42.8354383],[147.2336266,-42.8354038]],[[147.0685822,-42.8541081],[147.0695585,-42.8542211],[147.0696996,-42.8542374],[147.0702726,-42.8543037],[147.0702726,-42.854304],[147.0702094,-42.8545991],[147.0699569,-42.8557777],[147.0699451,-42.8558324],[147.0699445,-42.8558353],[147.0699444,-42.8558356],[147.0697861,-42.8565745],[147.0697825,-42.8565916],[147.0697821,-42.8565916],[147.0696305,-42.856574],[147.0688176,-42.8564799],[147.0681562,-42.8564033],[147.0681554,-42.8564032],[147.0681546,-42.8564031],[147.0664292,-42.8562033],[147.0664292,-42.856203],[147.0666518,-42.8552206],[147.0667205,-42.8549172],[147.0667214,-42.8549133],[147.0667824,-42.854644],[147.0669467,-42.8539189],[147.0685822,-42.8541081]],[[147.0285496,-42.8870559],[147.028538,-42.8870982],[147.0285373,-42.8871009],[147.028537,-42.887101],[147.0282776,-42.8871717],[147.0271877,-42.88719],[147.026808,-42.887136],[147.026808,-42.887136],[147.0264773,-42.887001],[147.0258894,-42.886668],[147.025522,-42.886587],[147.0255219,-42.886587],[147.0254305,-42.8865926],[147.025228,-42.8866051],[147.0248607,-42.8866772],[147.0241505,-42.8869025],[147.0238866,-42.8869332],[147.0236851,-42.8869566],[147.0235235,-42.886945],[147.0233359,-42.8869315],[147.0232746,-42.8869242],[147.0228247,-42.8868708],[147.0220984,-42.8867846],[147.0212555,-42.8866846],[147.0219249,-42.883851],[147.0222423,-42.8825074],[147.0223332,-42.8821224],[147.0223754,-42.8819439],[147.0125852,-42.880686],[147.0136251,-42.8765674],[147.0240462,-42.8779751],[147.0241125,-42.877984],[147.0242886,-42.8780078],[147.0251768,-42.874846],[147.0260059,-42.8719958],[147.0262999,-42.8709852],[147.0263863,-42.8706884],[147.0265091,-42.8702661],[147.026517,-42.8702389],[147.0265455,-42.8701411],[147.026721,-42.8695375],[147.0268522,-42.8690865],[147.0268552,-42.8690869],[147.029906,-42.869528],[147.0299235,-42.8695664],[147.0303578,-42.8705202],[147.0303353,-42.8706259],[147.0302814,-42.8708792],[147.0296589,-42.8707897],[147.0290759,-42.8707059],[147.028524,-42.8727257],[147.0278433,-42.8752166],[147.0298066,-42.8755084],[147.030087,-42.8755501],[147.0300872,-42.8755501],[147.0300524,-42.8756797],[147.0297293,-42.876883],[147.0297222,-42.8769096],[147.0293637,-42.8782447],[147.0293641,-42.8782447],[147.0308917,-42.8784557],[147.0308916,-42.8784559],[147.0296466,-42.8830434],[147.0285496,-42.8870559]],[[146.9942006,-42.8644039],[146.9942005,-42.8644043],[146.9934544,-42.8643009],[146.9929948,-42.8642372],[146.99257,-42.8641807],[146.9923103,-42.8641461],[146.9918434,-42.8640839],[146.9920472,-42.8633502],[146.9922357,-42.8626719],[146.9933999,-42.8624592],[146.9934784,-42.8624449],[146.9941144,-42.862475],[146.9944448,-42.8624906],[146.994445,-42.862491],[146.9944532,-42.8625086],[146.9945913,-42.862803],[146.9944216,-42.8634983],[146.9942006,-42.8644039]],[[147.1077282,-42.9316243],[147.1071456,-42.9315629],[147.1064159,-42.9314859],[147.1064117,-42.9314855],[147.1063445,-42.9314784],[147.1038312,-42.9312134],[147.1038273,-42.9312128],[147.1038234,-42.9312123],[147.1046256,-42.9271117],[147.1071286,-42.9273737],[147.109659,-42.9276385],[147.1098604,-42.9276596],[147.1097795,-42.9280708],[147.1096415,-42.9287809],[147.1094057,-42.9299944],[147.1092013,-42.9310463],[147.1090616,-42.9317648],[147.1077282,-42.9316243]]]]}}
]
}
